{
    "links": {
        "self": "http://www.neowsapp.com/rest/v1/neo/3358670?api_key=iIulBulltgU6a56xZRHN4H3l9WmuAYTsLGpBGhQ2"
    },
    "id": "3358670",
    "neo_reference_id": "3358670",
    "name": "(2006 VP13)",
    "designation": "2006 VP13",
    "nasa_jpl_url": "http://ssd.jpl.nasa.gov/sbdb.cgi?sstr=3358670",
    "absolute_magnitude_h": 23.6,
    "estimated_diameter": {
        "kilometers": {
            "estimated_diameter_min": 0.0506471459,
            "estimated_diameter_max": 0.1132504611
        },
        "meters": {
            "estimated_diameter_min": 50.6471458835,
            "estimated_diameter_max": 113.2504610618
        },
        "miles": {
            "estimated_diameter_min": 0.0314706677,
            "estimated_diameter_max": 0.0703705522
        },
        "feet": {
            "estimated_diameter_min": 166.1651821003,
            "estimated_diameter_max": 371.5566426699
        }
    },
    "is_potentially_hazardous_asteroid": false,
    "close_approach_data": [
        {
            "close_approach_date": "2006-11-21",
            "close_approach_date_full": "2006-Nov-21 16:45",
            "epoch_date_close_approach": 1164127500000,
            "relative_velocity": {
                "kilometers_per_second": "6.3325762041",
                "kilometers_per_hour": "22797.2743347184",
                "miles_per_hour": "14165.3397109255"
            },
            "miss_distance": {
                "astronomical": "0.0681961987",
                "lunar": "26.5283212943",
                "kilometers": "10202006.067616769",
                "miles": "6339232.6162946522"
            },
            "orbiting_body": "Earth"
        },
        {
            "close_approach_date": "2007-03-18",
            "close_approach_date_full": "2007-Mar-18 03:06",
            "epoch_date_close_approach": 1174187160000,
            "relative_velocity": {
                "kilometers_per_second": "5.339101526",
                "kilometers_per_hour": "19220.7654936806",
                "miles_per_hour": "11943.0362035595"
            },
            "miss_distance": {
                "astronomical": "0.1995326943",
                "lunar": "77.6182180827",
                "kilometers": "29849666.062641141",
                "miles": "18547722.4220081058"
            },
            "orbiting_body": "Earth"
        },
        {
            "close_approach_date": "2015-11-18",
            "close_approach_date_full": "2015-Nov-18 20:48",
            "epoch_date_close_approach": 1447879680000,
            "relative_velocity": {
                "kilometers_per_second": "12.536593091",
                "kilometers_per_hour": "45131.7351276569",
                "miles_per_hour": "28043.1050852932"
            },
            "miss_distance": {
                "astronomical": "0.3184650628",
                "lunar": "123.8829094292",
                "kilometers": "47641695.064296236",
                "miles": "29603176.5954146168"
            },
            "orbiting_body": "Earth"
        }
    ],
    "orbital_data": {
        "orbit_id": "11",
        "orbit_determination_date": "2017-04-06 09:07:38",
        "first_observation_date": "2006-11-14",
        "last_observation_date": "2006-11-27",
        "data_arc_in_days": 13,
        "observations_used": 24,
        "orbit_uncertainty": "8",
        "minimum_orbit_intersection": ".0681883",
        "jupiter_tisserand_invariant": "5.341",
        "epoch_osculation": "2454057.5",
        "eccentricity": ".142842266442068",
        "semi_major_axis": "1.178043676570607",
        "inclination": "11.09718505112213",
        "ascending_node_longitude": "231.0713773132778",
        "orbital_period": "467.0254155378718",
        "perihelion_distance": "1.009769247841515",
        "perihelion_argument": "234.3298160143318",
        "aphelion_distance": "1.346318105299699",
        "perihelion_time": "2454106.744923756973",
        "mean_anomaly": "322.040240289508",
        "mean_motion": ".7708359931233915",
        "equinox": "J2000",
        "orbit_class": {
            "orbit_class_type": "APO",
            "orbit_class_description": "Near-Earth asteroid orbits which cross the Earth’s orbit similar to that of 1862 Apollo",
            "orbit_class_range": "a (semi-major axis) > 1.0 AU; q (perihelion) < 1.017 AU"
        }
    },
    "is_sentry_object": false
}